1 45713U 20035BJ  22365.11123740  .00003235  00000-0  23596-3 0  9998
2 45713  53.0553 244.6085 0001246  94.0506 266.0626 15.06395740142936
1 45713U 20035BJ  22365.37662042  .00004270  00000-0  30538-3 0  9993
2 45713  53.0554 243.4173 0001252  93.9543 266.1589 15.06402404143372
1 45713U 20035BJ  23001.04009324  .00004517  00000-0  32189-3 0  9991
2 45713  53.0547 240.4390 0001239  95.0645 265.0486 15.06405440143471
1 45713U 20035BJ  23001.04009324  .00004517  00000-0  32189-3 0  9991
2 45713  53.0547 240.4390 0001239  95.0645 265.0486 15.06405440143077
1 45713U 20035BJ  23001.90261067 -.00000538  00000-0 -17214-4 0  9994
2 45713  53.0543 236.5672 0001452  89.3897 270.7258 15.06394347143606
1 45713U 20035BJ  23002.03530478 -.00001580  00000-0 -87193-4 0  9995
2 45713  53.0547 235.9711 0001292  95.5842 264.5295 15.06393544143226
1 45713U 20035BJ  23002.63242673 -.00001002  00000-0 -48387-4 0  9999
2 45713  53.0554 233.2909 0001320  96.6979 263.4160 15.06395817143717
1 45713U 20035BJ  23002.89781248  .00001003  00000-0  86238-4 0  9999
2 45713  53.0547 232.0995 0001310  98.3051 261.8086 15.06399981143759
1 45713U 20035BJ  23003.03050654  .00001947  00000-0  14959-3 0  9993
2 45713  53.0544 231.5037 0001345  97.3321 262.7821 15.06400343143374
1 45713U 20035BJ  23003.62763400  .00002657  00000-0  19725-3 0  9993
2 45713  53.0539 228.8235 0001457  95.9883 264.1272 15.06393037143465
1 45713U 20035BJ  23004.02571256  .00003259  00000-0  23758-3 0  9994
2 45713  53.0538 227.0367 0001485  95.3306 264.7852 15.06401308143928
1 45713U 20035BJ  23004.02571256  .00003259  00000-0  23758-3 0  9994
2 45713  53.0538 227.0367 0001485  95.3306 264.7852 15.06401308143524
1 45713U 20035BJ  23004.88821560  .00008708  00000-0  60250-3 0  9996
2 45713  53.0537 223.1645 0001506  98.6118 261.5042 15.06415778144051
1 45713U 20035BJ  23005.28629128  .00009002  00000-0  62212-3 0  9995
2 45713  53.0536 221.3776 0001495  98.3911 261.7248 15.06421228144114
1 45713U 20035BJ  23005.28629128  .00009002  00000-0  62212-3 0  9995
2 45713  53.0536 221.3776 0001495  98.3911 261.7248 15.06421228143719
1 45713U 20035BJ  23005.68436612  .00001474  00000-0  11776-3 0  9997
2 45713  53.0538 219.5940 0001220 152.0407 208.0648 15.06414531144175
1 45713U 20035BJ  23006.28149079 -.00001478  00000-0 -80368-4 0  9992
2 45713  53.0542 216.9104 0001195 100.5766 259.5357 15.06402438143866
1 45713U 20035BJ  23006.67957443 -.00003235  00000-0 -19838-3 0  9993
2 45713  53.0534 215.1223 0001331  96.4345 263.6795 15.06396202144323
1 45713U 20035BJ  23007.01131480 -.00003503  00000-0 -21645-3 0  9994
2 45713  53.0537 213.6332 0001344  95.6614 264.4528 15.06390024144378
1 45713U 20035BJ  23007.01131480 -.00003503  00000-0 -21645-3 0  9994
2 45713  53.0537 213.6332 0001344  95.6614 264.4528 15.06390024143973
1 45713U 20035BJ  23007.67478845 -.00000433  00000-0 -10166-4 0  9991
2 45713  53.0548 210.6553 0001263 101.8680 258.2450 15.06392504144476
1 45713U 20035BJ  23008.53729942  .00001121  00000-0  94180-4 0  9995
2 45713  53.0550 206.7829 0001291 102.2936 257.8198 15.06390581144603
1 45713U 20035BJ  23008.53729942  .00001121  00000-0  94180-4 0  9995
2 45713  53.0550 206.7829 0001291 102.2936 257.8198 15.06390581144209
1 45713U 20035BJ  23008.80268589  .00001248  00000-0  10270-3 0  9997
2 45713  53.0549 205.5917 0001292 101.7938 258.3196 15.06393492144645
1 45713U 20035BJ  23009.26711267  .00002210  00000-0  16725-3 0  9995
2 45713  53.0548 203.5072 0001320  99.7493 260.3645 15.06396061144713
1 45713U 20035BJ  23009.93057708  .00002245  00000-0  16957-3 0  9997
2 45713  53.0549 200.5283 0001299 101.7380 258.3755 15.06402434144417
1 45713U 20035BJ  23010.52769149  .00002131  00000-0  16189-3 0  9994
2 45713  53.0549 197.8481 0001342  99.3051 260.8090 15.06409974144901
1 45713U 20035BJ  23010.79307465  .00002404  00000-0  18019-3 0  9999
2 45713  53.0547 196.6564 0001354 100.4190 259.6951 15.06413113144541
1 45713U 20035BJ  23010.85942034  .00002688  00000-0  19919-3 0  9997
2 45713  53.0549 196.3586 0001341 100.6299 259.4842 15.06415986144954
1 45713U 20035BJ  23011.52289930  .00000126  00000-0  27346-4 0  9990
2 45713  53.0530 193.3813 0001474  98.5324 261.5832 15.06402002145055
1 45713U 20035BJ  23011.78828873 -.00000126  00000-0  10458-4 0  9990
2 45713  53.0534 192.1894 0001524  98.9616 261.1546 15.06400033144698
1 45713U 20035BJ  23011.85463354 -.00002196  00000-0 -12861-3 0  9996
2 45713  53.0533 191.8918 0001341  96.1883 263.9259 15.06396611145107
1 45713U 20035BJ  23012.78349577 -.00001269  00000-0 -66299-4 0  9994
2 45713  53.0541 187.7217 0001283  95.7316 264.3819 15.06397374144847
1 45713U 20035BJ  23012.84984293 -.00001144  00000-0 -57891-4 0  9991
2 45713  53.0543 187.4237 0001314  95.4466 264.6673 15.06397670145252
1 45713U 20035BJ  23013.18161391  .00021569  00000-0  14663-2 0  9994
2 45713  53.0538 185.9351 0001738  73.9730 286.1450 15.06303322145300
1 45713U 20035BJ  23013.18161391  .00021569  00000-0  14663-2 0  9994
2 45713  53.0538 185.9351 0001738  73.9730 286.1450 15.06303322144905
1 45713U 20035BJ  23014.17679254  .00001465  00000-0  11723-3 0  9994
2 45713  53.0550 181.4666 0001336  86.7113 273.4029 15.06387277145059
1 45713U 20035BJ  23014.70756136  .00002531  00000-0  18872-3 0  9995
2 45713  53.0552 179.0838 0001230  87.0848 273.0282 15.06398001145130
1 45713U 20035BJ  23015.43738134  .00002931  00000-0  21557-3 0  9992
2 45713  53.0543 175.8079 0001264  85.6876 274.4258 15.06397471145647
1 45713U 20035BJ  23015.70276403  .00004358  00000-0  31122-3 0  9992
2 45713  53.0547 174.6161 0001343  92.6520 267.4623 15.06406091145683
1 45713U 20035BJ  23016.16719188  .00002913  00000-0  21435-3 0  9996
2 45713  53.0546 172.5314 0001332  92.5364 267.5777 15.06404457145351
1 45713U 20035BJ  23016.56527496  .00000400  00000-0  45747-4 0  9991
2 45713  53.0547 170.7449 0001412  96.3713 263.7437 15.06398852145813
1 45713U 20035BJ  23016.76431181  .00000872  00000-0  77431-4 0  9996
2 45713  53.0557 169.8512 0001288  99.8897 260.2237 15.06404180145841
1 45713U 20035BJ  23017.49413622 -.00000214  00000-0  44923-5 0  9999
2 45713  53.0555 166.5748 0001271  93.9199 266.1936 15.06393350145551
1 45713U 20035BJ  23017.56048214 -.00000046  00000-0  15801-4 0  9993
2 45713  53.0555 166.2771 0001279  93.6942 266.4193 15.06394686145961
1 45713U 20035BJ  23017.69317273 -.00000115  00000-0  11174-4 0  9997
2 45713  53.0557 165.6821 0001209  89.0967 271.0161 15.06399551145986
1 45713U 20035BJ  23017.69317273 -.00000115  00000-0  11174-4 0  9997
2 45713  53.0557 165.6821 0001209  89.0967 271.0161 15.06399551145582
1 45713U 20035BJ  23018.55567965  .00002161  00000-0  16391-3 0  9995
2 45713  53.0554 161.8099 0001207  90.2979 269.8148 15.06400662146115
1 45713U 20035BJ  23018.75471685  .00004703  00000-0  33427-3 0  9993
2 45713  53.0544 160.9167 0001160  84.2708 275.8414 15.06411420146141
1 45713U 20035BJ  23018.75471685  .00004703  00000-0  33427-3 0  9993
2 45713  53.0544 160.9167 0001160  84.2708 275.8414 15.06411420145746
1 45713U 20035BJ  23019.08645545  .00001345  00000-0  10915-3 0  9994
2 45713  53.0548 159.4266 0001270  94.0542 266.0592 15.06400580145799
1 45713U 20035BJ  23019.41819736  .00000326  00000-0  40759-4 0  9994
2 45713  53.0545 157.9384 0001278  93.9455 266.1680 15.06391061146242
1 45713U 20035BJ  23019.41819736  .00000326  00000-0  40759-4 0  9994
2 45713  53.0545 157.9384 0001278  93.9455 266.1680 15.06391061145847
1 45713U 20035BJ  23020.08166007  .00002901  00000-0  21351-3 0  9992
2 45713  53.0550 154.9613 0001273  84.8267 275.2867 15.06403797145949
1 45713U 20035BJ  23020.34704847  .00000647  00000-0  62336-4 0  9995
2 45713  53.0543 153.7684 0001160  84.8768 275.2353 15.06399679146389
1 45713U 20035BJ  23021.07686159  .00002091  00000-0  15918-3 0  9999
2 45713  53.0549 150.4924 0001193  91.1349 268.9777 15.06403086146093
1 45713U 20035BJ  23021.40860070  .00001153  00000-0  96285-4 0  9997
2 45713  53.0546 149.0036 0001250  94.9228 265.1904 15.06394746146148
1 45713U 20035BJ  23021.67398327  .00004174  00000-0  29886-3 0  9995
2 45713  53.0546 147.8119 0001232  90.3705 269.7425 15.06408293146181
1 45713U 20035BJ  23022.60284633  .00007389  00000-0  51440-3 0  9995
2 45713  53.0550 143.6431 0001261  80.3170 279.7961 15.06401170146323
1 45713U 20035BJ  23023.73073900  .00013684  00000-0  93535-3 0  9999
2 45713  53.0548 138.5790 0001261  76.0565 284.0565 15.06417590146491
1 45713U 20035BJ  23024.46055722  .00001956  00000-0  15014-3 0  9997
2 45713  53.0545 135.3031 0001311  92.8278 267.2861 15.06401108146607
1 45713U 20035BJ  23025.45576324 -.00000346  00000-0 -43260-5 0  9993
2 45713  53.0560 130.8371 0001442 101.8477 258.2673 15.06394539146754
1 45713U 20035BJ  23025.58845623  .00000809  00000-0  73173-4 0  9995
2 45713  53.0556 130.2416 0001442  99.0358 261.0794 15.06398982147178
1 45713U 20035BJ  23026.58365798  .00003837  00000-0  27630-3 0  9996
2 45713  53.0565 125.7735 0001491  91.1298 268.9862 15.06405357147325
1 45713U 20035BJ  23026.58365798  .00003837  00000-0  27630-3 0  9996
2 45713  53.0565 125.7735 0001491  91.1298 268.9862 15.06405357146920
1 45713U 20035BJ  23027.57886399  .00002028  00000-0  15501-3 0  9996
2 45713  53.0564 121.3083 0001490  73.0495 287.0657 15.06400263147076
1 45713U 20035BJ  23028.50772028  .00000539  00000-0  55103-4 0  9991
2 45713  53.0555 117.1382 0001382  49.9315 310.1795 15.06399767147611
1 45713U 20035BJ  23028.64041015  .00001487  00000-0  11869-3 0  9994
2 45713  53.0549 116.5396 0001380  80.1555 279.9590 15.06404911147638
1 45713U 20035BJ  23028.64041015  .00001487  00000-0  11869-3 0  9994
2 45713  53.0549 116.5396 0001380  80.1555 279.9590 15.06404911147234
1 45713U 20035BJ  23029.23753873  .00001107  00000-0  93219-4 0  9991
2 45713  53.0562 113.8601 0001419  81.7418 278.3732 15.06393152147321
1 45713U 20035BJ  23029.63561479  .00000639  00000-0  61778-4 0  9998
2 45713  53.0557 112.0725 0001460  85.4056 274.7099 15.06401208147786
1 45713U 20035BJ  23029.63561479  .00000639  00000-0  61778-4 0  9998
2 45713  53.0557 112.0725 0001460  85.4056 274.7099 15.06401208147382
1 45713U 20035BJ  23030.23274465  .00000607  00000-0  59684-4 0  9990
2 45713  53.0555 109.3919 0001449  85.0526 275.0628 15.06390035147476
1 45713U 20035BJ  23030.56447434  .00000771  00000-0  70659-4 0  9991
2 45713  53.0567 107.9038 0001476  90.3100 269.8058 15.06398069147925
1 45713U 20035BJ  23030.56447434  .00000771  00000-0  70659-4 0  9991
2 45713  53.0567 107.9038 0001476  90.3100 269.8058 15.06398069147521
1 45713U 20035BJ  23030.89620983 -.00000084  00000-0  13225-4 0  9993
2 45713  53.0563 106.4125 0001448  76.5525 283.5625 15.06398491147975
1 45713U 20035BJ  23031.55967709  .00001428  00000-0  11472-3 0  9990
2 45713  53.0562 103.4363 0001436  80.0525 280.0626 15.06399479148074
1 45713U 20035BJ  23031.62602197  .00001739  00000-0  13558-3 0  9997
2 45713  53.0556 103.1379 0001417  82.5934 277.5216 15.06401653147681
1 45713U 20035BJ  23031.89141153  .00000799  00000-0  72557-4 0  9996
2 45713  53.0552 101.9453 0001214  84.4162 275.6965 15.06398422148124
